IRIDIUM 150             
1 43257U 18030J   24024.25091137  .00000606  00000+0  20937-3 0  9998
2 43257  86.3975 296.1253 0001642  82.5709 277.5673 14.34222642304759
IRIDIUM 143             
1 43258U 18030K   24024.30165825  .00000183  00000+0  58191-4 0  9995
2 43258  86.3980 296.1620 0001701  90.4705 269.6686 14.34218177304691
IRIDIUM 161             
1 43478U 18047C   24023.72839109  .00000088  00000+0  20175-4 0  9990
2 43478  86.4476  94.3813 0002246  98.2303 261.9152 14.43295366298862
IRIDIUM 152             
1 43479U 18047D   24024.55345144  .00000471  00000+0  16113-3 0  9996
2 43479  86.3948  93.8959 0002097  98.4936 261.6497 14.34219354297129
IRIDIUM 147             
1 43480U 18047E   24024.55979578  .00000555  00000+0  19102-3 0  9996
2 43480  86.3948  93.8827 0002233  86.1515 273.9936 14.34218687297126
IRIDIUM 110             
1 43481U 18047F   24024.56613552  .00000592  00000+0  20429-3 0  9990
2 43481  86.3951  93.9492 0002184  80.8341 279.3102 14.34220706297112
IRIDIUM 162             
1 43482U 18047G   24024.13809869  .00000601  00000+0  17248-3 0  9998
2 43482  86.4472  94.1118 0002183  93.2929 266.8522 14.43313039298917
IRIDIUM 160             
1 43569U 18061A   24024.58174210  .00000167  00000+0  52734-4 0  9991
2 43569  86.3934  62.2889 0002628  95.6798 264.4697 14.34218313288016
